NORAD_CAT_ID,OBJECT_NAME,OBJECT_TYPE,EPOCH,MEAN_MOTION,ECCENTRICITY,INCLINATION,RA_OF_ASC_NODE,ARG_OF_PERICENTER,MEAN_ANOMALY,BSTAR,MEAN_MOTION_DOT,MEAN_MOTION_DDOT,TLE_LINE0,TLE_LINE1,TLE_LINE2,SEMIMAJOR_AXIS,PERIOD,APOGEE,PERIGEE,DECAYED
54056.0,STARLINK-5226,PAYLOAD,2022-12-20 07:59:28,15.0883112,0.0001831,53.2159,220.5941,43.2082,316.9054,3.6156e-05,2.87e-06,0.0,0 STARLINK-5226,1 54056U 22136F   22354.33296984  .00000287  00000-0  36156-4 0  9996,2 54056  53.2159 220.5941 0001831  43.2082 316.9054 15.08831120  9402,6917.908,95.438,541.039,538.506,0.0
54056.0,STARLINK-5226,PAYLOAD,2022-12-20 22:17:52,15.09054441,0.0001248,53.2158,217.9174,8.0964,352.0048,-0.0027483,-0.00044016,0.0,0 STARLINK-5226,1 54056U 22136F   22354.92907847 -.00044016  00000-0 -27483-2 0  9999,2 54056  53.2158 217.9174 0001248   8.0964 352.0048 15.09054441  9979,6917.225,95.424,539.953,538.227,0.0
54056.0,STARLINK-5226,PAYLOAD,2022-12-21 03:04:06,15.08822628,0.000172,53.2159,217.0255,38.0679,322.0434,0.00042911,6.545e-05,0.0,0 STARLINK-5226,1 54056U 22136F   22355.12785147  .00006545  00000-0  42911-3 0  9996,2 54056  53.2159 217.0255 0001720  38.0679 322.0434 15.08822628 10003,6917.933000000001,95.439,540.988,538.609,0.0
54056.0,STARLINK-5226,PAYLOAD,2022-12-21 07:50:14,15.08848883,0.0001828,53.2158,216.1334,42.0265,318.0867,0.00013066,1.792e-05,0.0,0 STARLINK-5226,1 54056U 22136F   22355.32656164  .00001792  00000-0  13066-3 0  9992,2 54056  53.2158 216.1334 0001828  42.0265 318.0867 15.08848883 10034,6917.853,95.437,540.9830000000002,538.4540000000002,0.0
54056.0,STARLINK-5226,PAYLOAD,2022-12-22 01:19:29,15.0884207,0.0001892,53.2161,212.8622,43.6622,316.452,7.9479e-05,9.77e-06,0.0,0 STARLINK-5226,1 54056U 22136F   22356.05520688  .00000977  00000-0  79479-4 0  9999,2 54056  53.2161 212.8622 0001892  43.6622 316.4520 15.08842070 10148,6917.874,95.437,541.048,538.43,0.0
54056.0,STARLINK-5226,PAYLOAD,2022-12-22 07:41:02,15.08844269,0.0001836,53.2161,211.6728,45.2504,314.8637,9.7442e-05,1.263e-05,0.0,0 STARLINK-5226,1 54056U 22136F   22356.32016426  .00001263  00000-0  97442-4 0  9998,2 54056  53.2161 211.6728 0001836  45.2504 314.8637 15.08844269  9700,6917.8669999999975,95.437,541.002,538.462,0.0
54056.0,STARLINK-5226,PAYLOAD,2022-12-22 15:37:57,15.08843116,0.000182,53.2161,210.1862,46.5129,313.6014,5.3897e-05,5.700000000000001e-06,0.0,0 STARLINK-5226,1 54056U 22136F   22356.65136549  .00000570  00000-0  53897-4 0  9999,2 54056  53.2161 210.1862 0001820  46.5129 313.6014 15.08843116  9754,6917.871,95.437,540.995,538.477,0.0
54056.0,STARLINK-5226,PAYLOAD,2022-12-22 23:34:54,15.08838977,0.0001821,53.2162,208.6987,46.8226,313.2918,-2.7153e-05,-7.200000000000001e-06,0.0,0 STARLINK-5226,1 54056U 22136F   22356.98257029 -.00000720  00000-0 -27153-4 0  9997,2 54056  53.2162 208.6987 0001821  46.8226 313.2918 15.08838977 10285,6917.884,95.438,541.008,538.489,0.0
54056.0,STARLINK-5226,PAYLOAD,2022-12-23 07:31:49,15.08842341,0.0001838,53.216,207.2121,45.3678,314.7464,-2.1175e-05,-6.25e-06,0.0,0 STARLINK-5226,1 54056U 22136F   22357.31376750 -.00000625  00000-0 -21175-4 0  9990,2 54056  53.2160 207.2121 0001838  45.3678 314.7464 15.08842341  9854,6917.873000000001,95.437,541.01,538.467,0.0
54056.0,STARLINK-5226,PAYLOAD,2022-12-23 20:14:54,15.0884149,0.0001813,53.216,204.8329,46.3892,313.725,5.4395e-05,5.78e-06,0.0,0 STARLINK-5226,1 54056U 22136F   22357.84368487  .00000578  00000-0  54395-4 0  9991,2 54056  53.2160 204.8329 0001813  46.3892 313.7250 15.08841490  9934,6917.876,95.437,540.995,538.487,0.0
54056.0,STARLINK-5226,PAYLOAD,2022-12-24 13:44:08,15.08849014,0.0001915,53.2162,201.562,47.1117,313.0035,5.3602e-05,5.65e-06,0.0,0 STARLINK-5226,1 54056U 22136F   22358.57231722  .00000565  00000-0  53602-4 0  9999,2 54056  53.2162 201.5620 0001915  47.1117 313.0035 15.08849014 10527,6917.853,95.437,541.043,538.393,0.0
54056.0,STARLINK-5226,PAYLOAD,2022-12-24 20:05:41,15.08838001,0.0001965,53.2162,200.373,46.8297,313.2859,7.2641e-05,8.68e-06,0.0,0 STARLINK-5226,1 54056U 22136F   22358.83728369  .00000868  00000-0  72641-4 0  9996,2 54056  53.2162 200.3730 0001965  46.8297 313.2859 15.08838001 10560,6917.886,95.438,541.111,538.3919999999998,0.0
54056.0,STARLINK-5226,PAYLOAD,2022-12-25 07:13:23,15.08835324,0.0001978,53.2161,198.2917,46.5814,313.5343,1.5191e-05,-4.6e-07,0.0,0 STARLINK-5226,1 54056U 22136F   22359.30096811 -.00000046  00000-0  15191-4 0  9995,2 54056  53.2161 198.2917 0001978  46.5814 313.5343 15.08835324 10158,6917.895,95.438,541.128,538.391,0.0
54056.0,STARLINK-5226,PAYLOAD,2022-12-25 19:56:28,15.08838986,0.0001982,53.2161,195.9125,47.677,312.439,2.9109e-05,1.75e-06,0.0,0 STARLINK-5226,1 54056U 22136F   22359.83088563  .00000175  00000-0  29109-4 0  9994,2 54056  53.2161 195.9125 0001982  47.6770 312.4390 15.08838986 10237,6917.8830000000025,95.438,541.12,538.377,0.0
54056.0,STARLINK-5226,PAYLOAD,2022-12-25 23:07:14,15.0884072,0.0001991,53.216,195.3178,46.9412,313.1747,7.3451e-06,-1.71e-06,0.0,0 STARLINK-5226,1 54056U 22136F   22359.96336493 -.00000171  00000-0  73451-5 0  9993,2 54056  53.2160 195.3178 0001991  46.9412 313.1747 15.08840720 10731,6917.878000000002,95.438,541.121,538.366,0.0
54056.0,STARLINK-5226,PAYLOAD,2022-12-26 13:25:42,15.08837711,0.0001995,53.2159,192.6412,48.3824,311.7339,9.0393e-05,1.151e-05,0.0,0 STARLINK-5226,1 54056U 22136F   22360.55952283  .00001151  00000-0  90393-4 0  9992,2 54056  53.2159 192.6412 0001995  48.3824 311.7339 15.08837711 10341,6917.887,95.438,541.133,538.372,0.0
54056.0,STARLINK-5226,PAYLOAD,2022-12-26 21:22:38,15.08841238,0.0002018,53.2158,191.1543,49.0084,311.1082,0.00011251,1.503e-05,0.0,0 STARLINK-5226,1 54056U 22136F   22360.89072035  .00001503  00000-0  11251-3 0  9993,2 54056  53.2158 191.1543 0002018  49.0084 311.1082 15.08841238 10395,6917.877,95.437,541.138,538.346,0.0
54056.0,STARLINK-5226,PAYLOAD,2022-12-27 13:16:29,15.08844319,0.0002057,53.2158,188.1806,50.775,309.3425,8.7229e-05,1.1e-05,0.0,0 STARLINK-5226,1 54056U 22136F   22361.55311820  .00001100  00000-0  87229-4 0  9997,2 54056  53.2158 188.1806 0002057  50.7750 309.3425 15.08844319 10972,6917.8669999999975,95.437,541.155,538.309,0.0
54056.0,STARLINK-5226,PAYLOAD,2022-12-27 19:38:02,15.08833251,0.0002,53.2158,186.9907,48.5268,311.5896,1.9251e-05,1.8e-07,0.0,0 STARLINK-5226,1 54056U 22136F   22361.81808696  .00000018  00000-0  19251-4 0  9995,2 54056  53.2158 186.9907 0002000  48.5268 311.5896 15.08833251 10539,6917.901,95.438,541.15,538.382,0.0
54056.0,STARLINK-5226,PAYLOAD,2022-12-28 14:42:39,15.08840015,0.0001919,53.2155,183.4225,46.9543,313.1609,1.5311e-05,-4.4e-07,0.0,0 STARLINK-5226,1 54056U 22136F   22362.61296277 -.00000044  00000-0  15311-4 0  9993,2 54056  53.2155 183.4225 0001919  46.9543 313.1609 15.08840015 11130,6917.88,95.438,541.073,538.418,0.0
54056.0,STARLINK-5226,PAYLOAD,2022-12-29 05:01:08,15.08838631,0.0002058,53.2155,180.746,47.8897,312.2270000000001,3.5879e-05,2.83e-06,0.0,0 STARLINK-5226,1 54056U 22136F   22363.20912309  .00000283  00000-0  35879-4 0  9995,2 54056  53.2155 180.7460 0002058  47.8897 312.2270 15.08838631 10749,6917.885,95.438,541.173,538.326,0.0
54056.0,STARLINK-5226,PAYLOAD,2022-12-29 20:55:00,15.08822749,0.0002142,53.2155,177.773,49.5226,310.5953,-3.0814e-05,-7.78e-06,0.0,0 STARLINK-5226,1 54056U 22136F   22363.87153868 -.00000778  00000-0 -30814-4 0  9990,2 54056  53.2155 177.7730 0002142  49.5226 310.5953 15.08822749 11321,6917.933000000001,95.439,541.28,538.316,0.0
54056.0,STARLINK-5226,PAYLOAD,2022-12-30 04:51:56,15.08828106,0.0002112,53.2156,176.2864,50.4062,309.7116,-3.102900000000001e-06,-3.38e-06,0.0,0 STARLINK-5226,1 54056U 22136F   22364.20273740 -.00000338  00000-0 -31029-5 0  9992,2 54056  53.2156 176.2864 0002112  50.4062 309.7116 15.08828106 11379,6917.917,95.438,541.243,538.321,0.0
54056.0,STARLINK-5226,PAYLOAD,2022-12-31 04:42:43,15.08833678,0.0002085,53.2159,171.8253,51.2021,308.9157,0.00012244,1.661e-05,0.0,0 STARLINK-5226,1 54056U 22136F   22365.19633489  .00001661  00000-0  12244-3 0  9995,2 54056  53.2159 171.8253 0002085  51.2021 308.9157 15.08833678 11521,6917.9,95.438,541.207,538.322,0.0
54056.0,STARLINK-5226,PAYLOAD,2022-12-31 11:04:15,15.08834105,0.0002009999999999,53.2159,170.6355,49.9913,310.1256,0.00016921,2.405e-05,0.0,0 STARLINK-5226,1 54056U 22136F   22365.46129352  .00002405  00000-0  16921-3 0  9997,2 54056  53.2159 170.6355 0002010  49.9913 310.1256 15.08834105 11085,6917.898,95.438,541.154,538.373,0.0
54056.0,STARLINK-5226,PAYLOAD,2022-12-31 17:25:48,15.08838316,0.0002029999999999,53.2159,169.4462,50.4691,309.648,0.00019206,2.77e-05,0.0,0 STARLINK-5226,1 54056U 22136F   22365.72625149  .00002770  00000-0  19206-3 0  9995,2 54056  53.2159 169.4462 0002030  50.4691 309.6480 15.08838316 11127,6917.886,95.438,541.155,538.346,0.0
54056.0,STARLINK-5226,PAYLOAD,2023-01-01 04:33:29,15.08847401,0.0002051,53.216,167.3645,51.1096,309.0079,0.00021283,3.101e-05,0.0,0 STARLINK-5226,1 54056U 22136F   23001.18992564  .00003101  00000-0  21283-3 0  9998,2 54056  53.2160 167.3645 0002051  51.1096 309.0079 15.08847401 11672,6917.858,95.437,541.1419999999998,538.304,0.0
54056.0,STARLINK-5226,PAYLOAD,2023-01-01 17:16:35,15.088387300000004,0.0002133,53.2166,164.9862,52.7417,307.3769,8.9706e-05,1.14e-05,0.0,0 STARLINK-5226,1 54056U 22136F   23001.71985476  .00001140  00000-0  89706-4 0  9997,2 54056  53.2166 164.9862 0002133  52.7417 307.3769 15.08838730 11275,6917.884,95.438,541.225,538.274,0.0
54056.0,STARLINK-5226,PAYLOAD,2023-01-01 22:02:44,15.08843148,0.0002063,53.2163,164.0933,53.8644,306.2539,9.6696e-05,1.251e-05,0.0,0 STARLINK-5226,1 54056U 22136F   23001.91857165  .00001251  00000-0  96696-4 0  9991,2 54056  53.2163 164.0933 0002063  53.8644 306.2539 15.08843148 11786,6917.871,95.437,541.163,538.309,0.0
